{
  "type": "FeatureCollection",
  "features": [
    {
      "type": "Feature",
      "properties": {
        "norad_id": 22490,
        "name": "SCD 1",
        "group": "resource",
        "lat": 0.7764313661673313,
        "lon": 50.73568002484533,
        "alt_km": 757.2763368699179,
        "timestamp": "2025-12-20T05:41:49.674561+00:00",
        "meta_object_name": "SCD 1",
        "meta_object_id": "1993-009B",
        "meta_epoch": "2025-12-19T20:49:08.603616",
        "meta_mean_motion": 14.46003609,
        "meta_eccentricity": 0.00420899,
        "meta_inclination": 24.9683,
        "meta_ra_of_asc_node": 234.687,
        "meta_arg_of_pericenter": 40.4683,
        "meta_mean_anomaly": 7.718,
        "meta_ephemeris_type": 0,
        "meta_classification_type": "U",
        "meta_norad_cat_id": 22490,
        "meta_element_set_no": 999,
        "meta_rev_at_epoch": 73513,
        "meta_bstar": 6.3778999e-05,
        "meta_mean_motion_dot": 4.18e-06,
        "meta_mean_motion_ddot": 0,
        "tle_line1": "1 22490U 93009B   25353.86746069  .00000418  00000+0  63779-4 0  9990",
        "tle_line2": "2 22490  24.9683 234.6870 0042089  40.4683   7.7180 14.46003609735134"
      },
      "geometry": {
        "type": "Point",
        "coordinates": [
          50.73568002484533,
          0.7764313661673313
        ]
      }
    },
    {
      "type": "Feature",
      "properties": {
        "norad_id": 25397,
        "name": "TECHSAT 1B (GO-32)",
        "group": "resource",
        "lat": 71.37195173719698,
        "lon": -50.39714584898398,
        "alt_km": 802.4997403197294,
        "timestamp": "2025-12-20T05:41:49.674589+00:00",
        "meta_object_name": "TECHSAT 1B (GO-32)",
        "meta_object_id": "1998-043D",
        "meta_epoch": "2025-12-19T22:36:33.577056",
        "meta_mean_motion": 14.24378966,
        "meta_eccentricity": 0.00018324,
        "meta_inclination": 98.9926,
        "meta_ra_of_asc_node": 337.3205,
        "meta_arg_of_pericenter": 45.9373,
        "meta_mean_anomaly": 314.1956,
        "meta_ephemeris_type": 0,
        "meta_classification_type": "U",
        "meta_norad_cat_id": 25397,
        "meta_element_set_no": 999,
        "meta_rev_at_epoch": 42581,
        "meta_bstar": 4.0103919e-05,
        "meta_mean_motion_dot": 4.6e-07,
        "meta_mean_motion_ddot": 0,
        "tle_line1": "1 25397U 98043D   25353.94205529  .00000046  00000+0  40104-4 0  9996",
        "tle_line2": "2 25397  98.9926 337.3205 0001832  45.9373 314.1956 14.24378966425818"
      },
      "geometry": {
        "type": "Point",
        "coordinates": [
          -50.39714584898398,
          71.37195173719698
        ]
      }
    },
    {
      "type": "Feature",
      "properties": {
        "norad_id": 25504,
        "name": "SCD 2",
        "group": "resource",
        "lat": -5.973312122663133,
        "lon": -71.35534606604233,
        "alt_km": 750.8041846725719,
        "timestamp": "2025-12-20T05:41:49.674605+00:00",
        "meta_object_name": "SCD 2",
        "meta_object_id": "1998-060A",
        "meta_epoch": "2025-12-19T16:11:25.681920",
        "meta_mean_motion": 14.4542685,
        "meta_eccentricity": 0.0016943,
        "meta_inclination": 24.9945,
        "meta_ra_of_asc_node": 99.1342,
        "meta_arg_of_pericenter": 26.9849,
        "meta_mean_anomaly": 112.7893,
        "meta_ephemeris_type": 0,
        "meta_classification_type": "U",
        "meta_norad_cat_id": 25504,
        "meta_element_set_no": 999,
        "meta_rev_at_epoch": 43432,
        "meta_bstar": 4.7822e-05,
        "meta_mean_motion_dot": 3.53e-06,
        "meta_mean_motion_ddot": 0,
        "tle_line1": "1 25504U 98060A   25353.67460280  .00000353  00000+0  47822-4 0  9997",
        "tle_line2": "2 25504  24.9945  99.1342 0016943  26.9849 112.7893 14.45426850434326"
      },
      "geometry": {
        "type": "Point",
        "coordinates": [
          -71.35534606604233,
          -5.973312122663133
        ]
      }
    },
    {
      "type": "Feature",
      "properties": {
        "norad_id": 25757,
        "name": "DLR-TUBSAT",
        "group": "resource",
        "lat": -33.62627370130652,
        "lon": -15.202291154098805,
        "alt_km": 733.32846846758,
        "timestamp": "2025-12-20T05:41:49.674618+00:00",
        "meta_object_name": "DLR-TUBSAT",
        "meta_object_id": "1999-029B",
        "meta_epoch": "2025-12-17T13:22:10.787520",
        "meta_mean_motion": 14.52359578,
        "meta_eccentricity": 0.00141996,
        "meta_inclination": 98.6566,
        "meta_ra_of_asc_node": 336.2196,
        "meta_arg_of_pericenter": 177.8976,
        "meta_mean_anomaly": 182.2281,
        "meta_ephemeris_type": 0,
        "meta_classification_type": "U",
        "meta_norad_cat_id": 25757,
        "meta_element_set_no": 999,
        "meta_rev_at_epoch": 40688,
        "meta_bstar": 3.7650132e-05,
        "meta_mean_motion_dot": 1.05e-06,
        "meta_mean_motion_ddot": 0,
        "tle_line1": "1 25757U 99029B   25351.55706930  .00000105  00000+0  37650-4 0  9996",
        "tle_line2": "2 25757  98.6566 336.2196 0014199 177.8976 182.2281 14.52359578406886"
      },
      "geometry": {
        "type": "Point",
        "coordinates": [
          -15.202291154098805,
          -33.62627370130652
        ]
      }
    },
    {
      "type": "Feature",
      "properties": {
        "norad_id": 25994,
        "name": "TERRA",
        "group": "resource",
        "lat": -76.55396158630043,
        "lon": -170.2464361521617,
        "alt_km": 700.0776217807997,
        "timestamp": "2025-12-20T05:41:49.674630+00:00",
        "meta_object_name": "TERRA",
        "meta_object_id": "1999-068A",
        "meta_epoch": "2025-12-19T22:10:40.130112",
        "meta_mean_motion": 14.60909346,
        "meta_eccentricity": 0.00035489,
        "meta_inclination": 97.9738,
        "meta_ra_of_asc_node": 45.3446,
        "meta_arg_of_pericenter": 80.3104,
        "meta_mean_anomaly": 332.0344,
        "meta_ephemeris_type": 0,
        "meta_classification_type": "U",
        "meta_norad_cat_id": 25994,
        "meta_element_set_no": 999,
        "meta_rev_at_epoch": 38343,
        "meta_bstar": 7.5870231e-05,
        "meta_mean_motion_dot": 3.27e-06,
        "meta_mean_motion_ddot": 0,
        "tle_line1": "1 25994U 99068A   25353.92407558  .00000327  00000+0  75870-4 0  9991",
        "tle_line2": "2 25994  97.9738  45.3446 0003548  80.3104 332.0344 14.60909346383438"
      },
      "geometry": {
        "type": "Point",
        "coordinates": [
          -170.2464361521617,
          -76.55396158630043
        ]
      }
    },
    {
      "type": "Feature",
      "properties": {
        "norad_id": 27004,
        "name": "MAROC-TUBSAT",
        "group": "resource",
        "lat": -33.94328562786907,
        "lon": 169.48779525760781,
        "alt_km": 1003.5456109395409,
        "timestamp": "2025-12-20T05:41:49.674642+00:00",
        "meta_object_name": "MAROC-TUBSAT",
        "meta_object_id": "2001-056D",
        "meta_epoch": "2025-12-19T21:56:01.940640",
        "meta_mean_motion": 13.70253245,
        "meta_eccentricity": 0.001917,
        "meta_inclination": 99.7914,
        "meta_ra_of_asc_node": 162.4845,
        "meta_arg_of_pericenter": 241.0701,
        "meta_mean_anomaly": 289.4784,
        "meta_ephemeris_type": 0,
        "meta_classification_type": "U",
        "meta_norad_cat_id": 27004,
        "meta_element_set_no": 999,
        "meta_rev_at_epoch": 20163,
        "meta_bstar": 1.8462795e-05,
        "meta_mean_motion_dot": -3e-07,
        "meta_mean_motion_ddot": 0,
        "tle_line1": "1 27004U 01056D   25353.91391135 -.00000030  00000+0  18463-4 0  9994",
        "tle_line2": "2 27004  99.7914 162.4845 0019170 241.0701 289.4784 13.70253245201633"
      },
      "geometry": {
        "type": "Point",
        "coordinates": [
          169.48779525760781,
          -33.94328562786907
        ]
      }
    },
    {
      "type": "Feature",
      "properties": {
        "norad_id": 27424,
        "name": "AQUA",
        "group": "resource",
        "lat": 20.60123037717914,
        "lon": 138.42448367041723,
        "alt_km": 686.6147363679293,
        "timestamp": "2025-12-20T05:41:49.674653+00:00",
        "meta_object_name": "AQUA",
        "meta_object_id": "2002-022A",
        "meta_epoch": "2025-12-19T19:17:33.406368",
        "meta_mean_motion": 14.61824191,
        "meta_eccentricity": 0.00013487,
        "meta_inclination": 98.4046,
        "meta_ra_of_asc_node": 314.798,
        "meta_arg_of_pericenter": 112.3467,
        "meta_mean_anomaly": 286.6091,
        "meta_ephemeris_type": 0,
        "meta_classification_type": "U",
        "meta_norad_cat_id": 27424,
        "meta_element_set_no": 999,
        "meta_rev_at_epoch": 25706,
        "meta_bstar": 0.00015509968,
        "meta_mean_motion_dot": 7.25e-06,
        "meta_mean_motion_ddot": 0,
        "tle_line1": "1 27424U 02022A   25353.80385887  .00000725  00000+0  15510-3 0  9998",
        "tle_line2": "2 27424  98.4046 314.7980 0001348 112.3467 286.6091 14.61824191257063"
      },
      "geometry": {
        "type": "Point",
        "coordinates": [
          138.42448367041723,
          20.60123037717914
        ]
      }
    }
  ]
}